IRIDIUM 144             
1 43249U 18030A   25037.73457724 -.00000058  00000+0 -27866-4 0  9997
2 43249  86.4012 137.5501 0002115  97.4035 262.7401 14.34217739359149
IRIDIUM 149             
1 43250U 18030B   25037.74091408  .00000648  00000+0  22422-3 0  9998
2 43250  86.4010 137.5202 0002164  92.0235 268.1209 14.34216242359148
IRIDIUM 157             
1 43251U 18030C   25037.75994928  .00000657  00000+0  22735-3 0  9996
2 43251  86.4010 137.5543 0001829  95.3054 264.8350 14.34220710359122
IRIDIUM 140             
1 43252U 18030D   25037.77897641  .00000527  00000+0  18129-3 0  9991
2 43252  86.4012 137.5604 0002233  98.3125 261.8324 14.34217537359182
IRIDIUM 145             
1 43253U 18030E   25037.76628868  .00000519  00000+0  17814-3 0  9995
2 43253  86.4012 137.5388 0002458  89.8703 270.2775 14.34219896359115
IRIDIUM 146             
1 43254U 18030F   25037.74726406  .00000057  00000+0  13128-4 0  9993
2 43254  86.4013 137.5611 0002581  93.6897 266.4594 14.34217015359128
IRIDIUM 148             
1 43255U 18030G   25037.36670730  .00000298  00000+0  99420-4 0  9996
2 43255  86.4013 137.7551 0002123  90.7840 269.3599 14.34216631359100
IRIDIUM 142             
1 43256U 18030H   25037.75360573  .00000529  00000+0  18177-3 0  9997
2 43256  86.4008 137.5006 0002393  87.7333 272.4137 14.34218680359121
